LEMUR-1                 
1 40044U 14033AL  26192.88323400  .00000888  00000+0  10759-3 0  9999
2 40044  97.7903 342.1444 0048047 358.8650   1.2448 14.85331099649134
LEMUR-2-GREENBERG       
1 42837U 17042N   26190.49536315  .00011532  00000+0  37497-3 0  9996
2 42837  97.3831  11.0293 0007135 283.6729  76.3718 15.32031511491802
LEMUR-2-ANDIS           
1 42838U 17042P   26193.46919441  .00012815  00000+0  36920-3 0  9997
2 42838  97.3674  14.2674 0007132 269.8003  90.2423 15.35849981492332
LEMUR-2-MONSON          
1 42839U 17042Q   26191.46928106  .00009600  00000+0  34677-3 0  9999
2 42839  97.4089  11.9359 0005156 266.7916  93.2733 15.28674858491721
LEMUR-2-FURIAUS         
1 42840U 17042R   26193.44556339  .00010642  00000+0  35675-3 0  9993
2 42840  97.3775  11.8672 0006240 340.6601  19.4403 15.31072029492078
LEMUR-2-PETERG          
1 42841U 17042S   26193.53367779  .00012874  00000+0  38171-3 0  9995
2 42841  97.3990  18.6251 0003126 231.8120 128.2842 15.34964403492326
LEMUR-2-DEMBITZ         
1 42842U 17042T   26193.46526970  .00009858  00000+0  33095-3 0  9996
2 42842  97.3821  14.9283 0005082 286.7424  73.3260 15.31053389492214
LEMUR-2-ZACHARY         
1 42845U 17042W   26193.47424904  .00031926  00000+0  52090-3 0  9991
2 42845  97.3575  25.6887 0002460 261.6834  98.4140 15.52533793493127
LEMUR-2-AMANDA-SVANTE   
1 48269U 21034B   26192.93265476  .00020915  00000+0  60136-3 0  9996
2 48269  97.5758 271.8961 0004497 151.4014 208.7477 15.35822625284857
LEMUR-2-SPECIAL-K       
1 48273U 21034F   26193.21876865  .00172789  00000+0  12138-2 0  9998
2 48273  97.5632 282.0516 0006324 216.8117 143.2713 15.73622953285619
LEMUR-2-EMBRIONOVIS     
1 56970U 23084AQ  26193.38270896  .00008294  00000+0  22271-3 0  9997
2 56970  97.6310 338.5644 0008065 217.3745 142.6939 15.38181247171559
LEMUR-2-DEVERILL-M-T    
1 57391U 23100F   26193.11415714  .00016119  00000+0  39346-3 0  9991
2 57391  99.4465 239.0952 0004785 309.8311  50.2507 15.40988276165082
LEMUR-2-BASS            
1 58259U 23174D   26193.49371542  .00011630  00000+0  25737-3 0  9999
2 58259  97.3850 278.5730 0007777  86.2691 273.9446 15.43934169149267
LEMUR-2-JK0903EM1407    
1 58336U 23174CJ  26192.96169835  .00017525  00000+0  28286-3 0  9997
2 58336  97.3924 284.1520 0003928  44.2300 315.9266 15.52951542149575
LEMUR-2-MJR092620       
1 58340U 23174CN  26193.54189666  .00013044  00000+0  27090-3 0  9995
2 58340  97.3981 284.0533 0005549  38.9821 321.1827 15.45798027149565
LEMUR-2-NIMBUS2000      
1 58899U 24022A   26193.54138310  .00014682  00000+0  35694-3 0  9995
2 58899  97.4088  43.8762 0009027  37.5068 322.6807 15.41041214136173
